KUIPER-00016            
1 63732U 25088J   25213.58335648 -.00864710  00000+0 -61881-1 0  9991
2 63732  51.8871   6.7944 0010873  68.2263 172.8692 15.06650597  5294
KUIPER-00018            
1 63733U 25088K   25213.58335648 -.00013356  00000+0 -52807-3 0  9994
2 63733  51.8756   1.6832 0006910  84.4275 220.9355 15.24161751  4915
KUIPER-00019            
1 63734U 25088L   25213.58335648 -.00948416  00000+0 -31801-1 0  9998
2 63734  51.8723   1.0447 0005019  85.5229 156.4923 15.33240313  4888
KUIPER-00020            
1 63735U 25088M   25213.58335648 -.00026735  00000+0 -12263-2 0  9992
2 63735  51.8830   2.5230 0007587  75.5733 138.0199 15.19638022  5261
KUIPER-00021            
1 63736U 25088N   25213.58335648 -.00559736  00000+0 -28986-1 0  9993
2 63736  51.8730   3.0936 0005806  88.6040 242.7160 15.17960456  5200
KUIPER-00023            
1 63737U 25088P   25213.58335648 -.00018064  00000+0 -92216-3 0  9997
2 63737  51.8804   3.8175 0010544  83.6352 262.3170 15.15665651  4296
KUIPER-00024            
1 63738U 25088Q   25212.68164598  .00020141  00000+0  52882-3 0  9994
2 63738  51.8733   4.5294 0001148 107.0274 253.0840 15.38608968 15131
KUIPER-00025            
1 63739U 25088R   25213.58335648 -.00691774  00000+0 -30884-1 0  9995
2 63739  51.8779   1.7426 0008273  66.5056 164.0699 15.23494431  5720
